{
    "links": {
        "self": "http://www.neowsapp.com/rest/v1/neo/3548393?api_key=iIulBulltgU6a56xZRHN4H3l9WmuAYTsLGpBGhQ2"
    },
    "id": "3548393",
    "neo_reference_id": "3548393",
    "name": "(2010 TZ53)",
    "designation": "2010 TZ53",
    "nasa_jpl_url": "http://ssd.jpl.nasa.gov/sbdb.cgi?sstr=3548393",
    "absolute_magnitude_h": 23.0,
    "estimated_diameter": {
        "kilometers": {
            "estimated_diameter_min": 0.0667659413,
            "estimated_diameter_max": 0.1492931834
        },
        "meters": {
            "estimated_diameter_min": 66.7659413495,
            "estimated_diameter_max": 149.2931834393
        },
        "miles": {
            "estimated_diameter_min": 0.0414864197,
            "estimated_diameter_max": 0.0927664547
        },
        "feet": {
            "estimated_diameter_min": 219.0483710172,
            "estimated_diameter_max": 489.807047955
        }
    },
    "is_potentially_hazardous_asteroid": false,
    "close_approach_data": [
        {
            "close_approach_date": "2009-10-11",
            "close_approach_date_full": "2009-Oct-11 19:02",
            "epoch_date_close_approach": 1255287720000,
            "relative_velocity": {
                "kilometers_per_second": "11.4175921923",
                "kilometers_per_hour": "41103.3318921256",
                "miles_per_hour": "25540.0119748599"
            },
            "miss_distance": {
                "astronomical": "0.2906493578",
                "lunar": "113.0626001842",
                "kilometers": "43480524.843747886",
                "miles": "27017545.3176813868"
            },
            "orbiting_body": "Earth"
        },
        {
            "close_approach_date": "2010-09-29",
            "close_approach_date_full": "2010-Sep-29 22:30",
            "epoch_date_close_approach": 1285799400000,
            "relative_velocity": {
                "kilometers_per_second": "13.228571769",
                "kilometers_per_hour": "47622.8583683172",
                "miles_per_hour": "29590.9921900247"
            },
            "miss_distance": {
                "astronomical": "0.102023222",
                "lunar": "39.687033358",
                "kilometers": "15262456.70173714",
                "miles": "9483650.831726932"
            },
            "orbiting_body": "Earth"
        },
        {
            "close_approach_date": "2011-10-04",
            "close_approach_date_full": "2011-Oct-04 00:51",
            "epoch_date_close_approach": 1317689460000,
            "relative_velocity": {
                "kilometers_per_second": "18.8709060034",
                "kilometers_per_hour": "67935.2616122324",
                "miles_per_hour": "42212.3296390008"
            },
            "miss_distance": {
                "astronomical": "0.209378153",
                "lunar": "81.448101517",
                "kilometers": "31322525.71333411",
                "miles": "19462914.970906318"
            },
            "orbiting_body": "Earth"
        },
        {
            "close_approach_date": "2012-10-11",
            "close_approach_date_full": "2012-Oct-11 22:32",
            "epoch_date_close_approach": 1349994720000,
            "relative_velocity": {
                "kilometers_per_second": "25.8234177537",
                "kilometers_per_hour": "92964.30391337",
                "miles_per_hour": "57764.4031732826"
            },
            "miss_distance": {
                "astronomical": "0.448761351",
                "lunar": "174.568165539",
                "kilometers": "67133742.24792237",
                "miles": "41714973.083853906"
            },
            "orbiting_body": "Earth"
        }
    ],
    "orbital_data": {
        "orbit_id": "8",
        "orbit_determination_date": "2017-04-06 08:56:23",
        "first_observation_date": "2010-10-08",
        "last_observation_date": "2010-10-17",
        "data_arc_in_days": 9,
        "observations_used": 27,
        "orbit_uncertainty": "8",
        "minimum_orbit_intersection": ".0846911",
        "jupiter_tisserand_invariant": "5.847",
        "epoch_osculation": "2455482.5",
        "eccentricity": ".3350659743861225",
        "semi_major_axis": "1.027986783944531",
        "inclination": "20.26496213817756",
        "ascending_node_longitude": "196.2575697647632",
        "orbital_period": "380.6972361090153",
        "perihelion_distance": ".6835433905261004",
        "perihelion_argument": "55.5679371556157",
        "aphelion_distance": "1.372430177362962",
        "perihelion_time": "2455385.742698205286",
        "mean_anomaly": "91.49693074241935",
        "mean_motion": ".9456333428617577",
        "equinox": "J2000",
        "orbit_class": {
            "orbit_class_type": "APO",
            "orbit_class_description": "Near-Earth asteroid orbits which cross the Earth’s orbit similar to that of 1862 Apollo",
            "orbit_class_range": "a (semi-major axis) > 1.0 AU; q (perihelion) < 1.017 AU"
        }
    },
    "is_sentry_object": false
}